PANDORA
1 99152U 80229J   26020.88296296  .00000000  00000-0  37770-3 0    07
2 99152  97.7997  21.8943 0003763 243.9119  51.4945 14.87769191    02
